{"type":"FeatureCollection","name":"erline-assets","features":[{"type":"Feature","id":"INTAKE-01","geometry":{"type":"Point","coordinates":[36.4304288,0.0195682]},"properties":{"asset":"facility","id":"INTAKE-01","name":"Mairo Inya Dam and Intake","facility_type":"intake","capacity_m3d":4200,"throughput_m3d":3444,"status":"ok"}},{"type":"Feature","id":"INTAKE-02","geometry":{"type":"Point","coordinates":[36.4463401,0.0492342]},"properties":{"asset":"facility","id":"INTAKE-02","name":"Kwa Njora Dam and Intake","facility_type":"intake","capacity_m3d":3000,"throughput_m3d":2250,"status":"ok"}},{"type":"Feature","id":"WTP-01","geometry":{"type":"Point","coordinates":[36.4323312,0.0202184]},"properties":{"asset":"facility","id":"WTP-01","name":"Mairo Inya WTP","facility_type":"wtp","capacity_m3d":3600,"throughput_m3d":2448,"status":"ok"}},{"type":"Feature","id":"WTP-02","geometry":{"type":"Point","coordinates":[36.4454467,0.0527563]},"properties":{"asset":"facility","id":"WTP-02","name":"Kwa Njora WTP","facility_type":"wtp","capacity_m3d":2400,"throughput_m3d":1464,"status":"ok"}},{"type":"Feature","id":"WWTP-01","geometry":{"type":"Point","coordinates":[36.4116876,-0.0025202]},"properties":{"asset":"facility","id":"WWTP-01","name":"Mairo Inya WWTP","facility_type":"wwtp","capacity_m3d":1800,"throughput_m3d":972,"status":"warn"}},{"type":"Feature","id":"TANK-01","geometry":{"type":"Point","coordinates":[36.4114206,0.0230333]},"properties":{"asset":"tank","id":"TANK-01","name":"Ziwani Reservoir 1","capacity_m3":1500,"level_pct":78,"inflow_lps":9,"outflow_lps":7,"status":"ok","junction_degree":0}},{"type":"Feature","id":"TANK-02","geometry":{"type":"Point","coordinates":[36.4114783,0.0227811]},"properties":{"asset":"tank","id":"TANK-02","name":"Ziwani Reservoir 2","capacity_m3":1500,"level_pct":64,"inflow_lps":13,"outflow_lps":12,"status":"ok","junction_degree":0}},{"type":"Feature","id":"TANK-03","geometry":{"type":"Point","coordinates":[36.4117089,0.0229172]},"properties":{"asset":"tank","id":"TANK-03","name":"Ziwani Reservoir 3","capacity_m3":1000,"level_pct":47,"inflow_lps":17,"outflow_lps":17,"status":"ok","junction_degree":0}},{"type":"Feature","id":"TANK-04","geometry":{"type":"Point","coordinates":[36.4183047,0.0373271]},"properties":{"asset":"tank","id":"TANK-04","name":"Shauri Reservoir","capacity_m3":2000,"level_pct":86,"inflow_lps":9,"outflow_lps":9,"status":"ok","junction_degree":0}},{"type":"Feature","id":"TANK-05","geometry":{"type":"Point","coordinates":[36.4379541,0.0586335]},"properties":{"asset":"tank","id":"TANK-05","name":"Kwa Njora Reservoir","capacity_m3":1200,"level_pct":58,"inflow_lps":13,"outflow_lps":14,"status":"ok","junction_degree":0}},{"type":"Feature","id":"SN-01","geometry":{"type":"Point","coordinates":[36.4314167,0.0196593]},"properties":{"asset":"sensor","id":"SN-01","name":"Flow + pressure \u00b7 Mairo Inya Intake to Mairo Inya WTP","type":"flow+pressure","flow_lps":6.0,"pressure_bar":2.6,"last_seen":"1s ago","status":"ok","pipe_id":"RW-01"}},{"type":"Feature","id":"SN-02","geometry":{"type":"Point","coordinates":[36.4474441,0.0514692]},"properties":{"asset":"sensor","id":"SN-02","name":"Flow + pressure \u00b7 Kwa Njora Intake to Kwa Njora WTP","type":"flow+pressure","flow_lps":8.3,"pressure_bar":2.97,"last_seen":"8s ago","status":"ok","pipe_id":"RW-02"}},{"type":"Feature","id":"SN-03","geometry":{"type":"Point","coordinates":[36.4232295,0.0241747]},"properties":{"asset":"sensor","id":"SN-03","name":"Flow + pressure \u00b7 Mairo Inya WTP to Ziwani Reservoirs","type":"flow+pressure","flow_lps":10.6,"pressure_bar":3.34,"last_seen":"15s ago","status":"ok","pipe_id":"TM-01"}},{"type":"Feature","id":"SN-04","geometry":{"type":"Point","coordinates":[36.4145552,0.0306314]},"properties":{"asset":"sensor","id":"SN-04","name":"Flow + pressure \u00b7 Ziwani 1 to Shauri Reservoir","type":"flow+pressure","flow_lps":12.9,"pressure_bar":3.71,"last_seen":"22s ago","status":"ok","pipe_id":"TM-02"}},{"type":"Feature","id":"SN-05","geometry":{"type":"Point","coordinates":[36.4303538,0.0247064]},"properties":{"asset":"sensor","id":"SN-05","name":"Flow + pressure \u00b7 Ziwani Reservoir 3 to Kahembe TC","type":"flow+pressure","flow_lps":15.2,"pressure_bar":2.88,"last_seen":"29s ago","status":"ok","pipe_id":"TM-03"}},{"type":"Feature","id":"SN-06","geometry":{"type":"Point","coordinates":[36.4092585,0.0156861]},"properties":{"asset":"sensor","id":"SN-06","name":"Flow + pressure \u00b7 Ziwani 2 Reservoir to Shamata","type":"flow+pressure","flow_lps":17.5,"pressure_bar":3.25,"last_seen":"36s ago","status":"ok","pipe_id":"TM-04"}},{"type":"Feature","id":"SN-07","geometry":{"type":"Point","coordinates":[36.400792,0.0269322]},"properties":{"asset":"sensor","id":"SN-07","name":"Flow + pressure \u00b7 Ngai Ndeithia to Harvesters","type":"flow+pressure","flow_lps":19.8,"pressure_bar":3.62,"last_seen":"43s ago","status":"ok","pipe_id":"TM-05"}},{"type":"Feature","id":"SN-08","geometry":{"type":"Point","coordinates":[36.4155009,0.0140216]},"properties":{"asset":"sensor","id":"SN-08","name":"Flow + pressure \u00b7 Ziwani Reservoir 2 to Gathanga","type":"flow+pressure","flow_lps":22.1,"pressure_bar":2.79,"last_seen":"50s ago","status":"ok","pipe_id":"TM-06"}},{"type":"Feature","id":"SN-09","geometry":{"type":"Point","coordinates":[36.4060407,0.0295875]},"properties":{"asset":"sensor","id":"SN-09","name":"Flow + pressure \u00b7 Ngai Ndeithia to Harvesters","type":"flow+pressure","flow_lps":6.4,"pressure_bar":3.16,"last_seen":"57s ago","status":"ok","pipe_id":"TM-07"}},{"type":"Feature","id":"SN-10","geometry":{"type":"Point","coordinates":[36.4413037,0.0556998]},"properties":{"asset":"sensor","id":"SN-10","name":"Flow + pressure \u00b7 Kwa Njora WTP to Kwa Njora Reservoir","type":"flow+pressure","flow_lps":8.7,"pressure_bar":3.53,"last_seen":"5s ago","status":"ok","pipe_id":"TM-08"}},{"type":"Feature","id":"SN-11","geometry":{"type":"Point","coordinates":[36.4475189,0.0673936]},"properties":{"asset":"sensor","id":"SN-11","name":"Flow + pressure \u00b7 Kwa Njora Reservoir to Ndogino","type":"flow+pressure","flow_lps":11.0,"pressure_bar":2.7,"last_seen":"12s ago","status":"ok","pipe_id":"TM-09"}},{"type":"Feature","id":"SN-12","geometry":{"type":"Point","coordinates":[36.4137231,0.0290089]},"properties":{"asset":"sensor","id":"SN-12","name":"Flow + pressure \u00b7 Shauri Reservoir to Ndothua","type":"flow+pressure","flow_lps":13.3,"pressure_bar":3.07,"last_seen":"19s ago","status":"ok","pipe_id":"TM-10"}},{"type":"Feature","id":"SN-13","geometry":{"type":"Point","coordinates":[36.4288475,0.0459848]},"properties":{"asset":"sensor","id":"SN-13","name":"Flow + pressure \u00b7 Shauri Reservoir to Shauri","type":"flow+pressure","flow_lps":15.6,"pressure_bar":3.44,"last_seen":"26s ago","status":"ok","pipe_id":"TM-11"}},{"type":"Feature","id":"SN-14","geometry":{"type":"Point","coordinates":[36.4261865,0.0161246]},"properties":{"asset":"sensor","id":"SN-14","name":"Flow + pressure \u00b7 Ziwani 3 DL-017","type":"flow+pressure","flow_lps":5.9,"pressure_bar":3.37,"last_seen":"33s ago","status":"ok","pipe_id":"DL-017"}},{"type":"Feature","id":"SN-15","geometry":{"type":"Point","coordinates":[36.4282476,0.0041844]},"properties":{"asset":"sensor","id":"SN-15","name":"Flow + pressure \u00b7 Ziwani 3 DL-022","type":"flow+pressure","flow_lps":7.2,"pressure_bar":3.66,"last_seen":"40s ago","status":"ok","pipe_id":"DL-022"}},{"type":"Feature","id":"SN-16","geometry":{"type":"Point","coordinates":[36.4398385,0.0260016]},"properties":{"asset":"sensor","id":"SN-16","name":"Flow + pressure \u00b7 Ziwani 3 DL-078","type":"flow+pressure","flow_lps":8.5,"pressure_bar":2.55,"last_seen":"47s ago","status":"ok","pipe_id":"DL-078"}},{"type":"Feature","id":"SN-17","geometry":{"type":"Point","coordinates":[36.4237186,0.0594989]},"properties":{"asset":"sensor","id":"SN-17","name":"Flow + pressure \u00b7 Shauri DL-091","type":"flow+pressure","flow_lps":9.8,"pressure_bar":2.84,"last_seen":"54s ago","status":"ok","pipe_id":"DL-091"}},{"type":"Feature","id":"SN-18","geometry":{"type":"Point","coordinates":[36.4201546,0.0546146]},"properties":{"asset":"sensor","id":"SN-18","name":"Flow + pressure \u00b7 Shauri DL-087","type":"flow+pressure","flow_lps":4.1,"pressure_bar":3.13,"last_seen":"2s ago","status":"ok","pipe_id":"DL-087"}},{"type":"Feature","id":"SN-19","geometry":{"type":"Point","coordinates":[36.4210445,0.0639518]},"properties":{"asset":"sensor","id":"SN-19","name":"Flow + pressure \u00b7 Shauri DL-096","type":"flow+pressure","flow_lps":5.4,"pressure_bar":3.42,"last_seen":"9s ago","status":"ok","pipe_id":"DL-096"}},{"type":"Feature","id":"SN-20","geometry":{"type":"Point","coordinates":[36.4105873,0.0048114]},"properties":{"asset":"sensor","id":"SN-20","name":"Flow + pressure \u00b7 Ziwani 2 DL-038","type":"flow+pressure","flow_lps":6.7,"pressure_bar":3.71,"last_seen":"16s ago","status":"ok","pipe_id":"DL-038"}},{"type":"Feature","id":"SN-21","geometry":{"type":"Point","coordinates":[36.4090267,0.0075667]},"properties":{"asset":"sensor","id":"SN-21","name":"Flow + pressure \u00b7 Ziwani 2 DL-048","type":"flow+pressure","flow_lps":8.0,"pressure_bar":2.6,"last_seen":"23s ago","status":"ok","pipe_id":"DL-048"}},{"type":"Feature","id":"SN-22","geometry":{"type":"Point","coordinates":[36.4071806,0.0220719]},"properties":{"asset":"sensor","id":"SN-22","name":"Flow + pressure \u00b7 Ziwani 1 DL-055","type":"flow+pressure","flow_lps":9.3,"pressure_bar":2.89,"last_seen":"30s ago","status":"ok","pipe_id":"DL-055"}},{"type":"Feature","id":"SN-23","geometry":{"type":"Point","coordinates":[36.4038723,0.0202197]},"properties":{"asset":"sensor","id":"SN-23","name":"Flow + pressure \u00b7 Ziwani 1 DL-060","type":"flow+pressure","flow_lps":3.6,"pressure_bar":3.18,"last_seen":"37s ago","status":"ok","pipe_id":"DL-060"}},{"type":"Feature","id":"SN-24","geometry":{"type":"Point","coordinates":[36.4308407,0.0658111]},"properties":{"asset":"sensor","id":"SN-24","name":"Flow + pressure \u00b7 Kwa Njora DL-129","type":"flow+pressure","flow_lps":4.9,"pressure_bar":3.47,"last_seen":"44s ago","status":"ok","pipe_id":"DL-129"}},{"type":"Feature","id":"MV-01","geometry":{"type":"Point","coordinates":[36.4536547,0.020529]},"properties":{"asset":"meter_valve","id":"MV-01","name":"Bulk meter \u00b7 Kahembe TC","size_mm":100,"state":"open","consumption_m3d":180,"status":"ok"}},{"type":"Feature","id":"MV-02","geometry":{"type":"Point","coordinates":[36.4181963,0.003407]},"properties":{"asset":"meter_valve","id":"MV-02","name":"Bulk meter \u00b7 Shamata","size_mm":150,"state":"open","consumption_m3d":277,"status":"ok"}},{"type":"Feature","id":"MV-03","geometry":{"type":"Point","coordinates":[36.3919421,0.0343646]},"properties":{"asset":"meter_valve","id":"MV-03","name":"Bulk meter \u00b7 Harvesters","size_mm":80,"state":"open","consumption_m3d":374,"status":"ok"}},{"type":"Feature","id":"MV-04","geometry":{"type":"Point","coordinates":[36.4198042,0.0051283]},"properties":{"asset":"meter_valve","id":"MV-04","name":"Bulk meter \u00b7 Gathanga","size_mm":100,"state":"throttled","consumption_m3d":471,"status":"ok"}},{"type":"Feature","id":"MV-05","geometry":{"type":"Point","coordinates":[36.4569716,0.0766197]},"properties":{"asset":"meter_valve","id":"MV-05","name":"Bulk meter \u00b7 Ndogino","size_mm":150,"state":"open","consumption_m3d":568,"status":"ok"}},{"type":"Feature","id":"MV-06","geometry":{"type":"Point","coordinates":[36.4184132,0.02436]},"properties":{"asset":"meter_valve","id":"MV-06","name":"Bulk meter \u00b7 Ndothua","size_mm":200,"state":"open","consumption_m3d":665,"status":"warn"}},{"type":"Feature","id":"MV-07","geometry":{"type":"Point","coordinates":[36.4373394,0.057208]},"properties":{"asset":"meter_valve","id":"MV-07","name":"Bulk meter \u00b7 Shauri","size_mm":100,"state":"open","consumption_m3d":762,"status":"ok"}},{"type":"Feature","id":"PV-01","geometry":{"type":"Point","coordinates":[36.4385097,0.0585254]},"properties":{"asset":"pressure_valve","id":"PV-01","name":"PRV \u00b7 KWANJORA","set_bar":2.5,"live_bar":2.6,"min_bar":2.0,"max_bar":3.0,"status":"ok"}},{"type":"Feature","id":"PV-02","geometry":{"type":"Point","coordinates":[36.4329272,0.0513624]},"properties":{"asset":"pressure_valve","id":"PV-02","name":"PRV \u00b7 SHAURI","set_bar":3.0,"live_bar":2.8,"min_bar":2.5,"max_bar":3.5,"status":"ok"}},{"type":"Feature","id":"PV-03","geometry":{"type":"Point","coordinates":[36.4071889,0.0254807]},"properties":{"asset":"pressure_valve","id":"PV-03","name":"PRV \u00b7 ZIWANI1","set_bar":2.0,"live_bar":2.9,"min_bar":1.5,"max_bar":2.5,"status":"alert"}},{"type":"Feature","id":"PV-04","geometry":{"type":"Point","coordinates":[36.4163655,0.0052454]},"properties":{"asset":"pressure_valve","id":"PV-04","name":"PRV \u00b7 ZIWANI2","set_bar":3.5,"live_bar":3.8,"min_bar":3.0,"max_bar":4.0,"status":"ok"}},{"type":"Feature","id":"PV-05","geometry":{"type":"Point","coordinates":[36.4287868,0.0247854]},"properties":{"asset":"pressure_valve","id":"PV-05","name":"PRV \u00b7 ZIWANI3","set_bar":2.5,"live_bar":2.0,"min_bar":2.0,"max_bar":3.0,"status":"warn"}}]}