{"type":"FeatureCollection","name":"riverton-assets","crs":{"type":"name","properties":{"name":"EPSG:4326"}},"features":[{"type":"Feature","id":"TANK-01","geometry":{"type":"Point","coordinates":[34.753227696939526,-0.12331154980698937]},"properties":{"asset":"tank","id":"TANK-01","name":"Reservoir 1","capacity_m3":800,"level_pct":60,"inflow_lps":8,"outflow_lps":6,"status":"ok","junction_degree":10}},{"type":"Feature","id":"TANK-02","geometry":{"type":"Point","coordinates":[34.76935279600167,-0.11484004272725808]},"properties":{"asset":"tank","id":"TANK-02","name":"Reservoir 2","capacity_m3":1120,"level_pct":67,"inflow_lps":11,"outflow_lps":11,"status":"ok","junction_degree":10}},{"type":"Feature","id":"TANK-03","geometry":{"type":"Point","coordinates":[34.76595254074237,-0.11682160461767493]},"properties":{"asset":"tank","id":"TANK-03","name":"Reservoir 3","capacity_m3":1440,"level_pct":74,"inflow_lps":14,"outflow_lps":16,"status":"ok","junction_degree":9}},{"type":"Feature","id":"TANK-04","geometry":{"type":"Point","coordinates":[34.74135328122666,-0.12605789485960203]},"properties":{"asset":"tank","id":"TANK-04","name":"Reservoir 4","capacity_m3":1760,"level_pct":81,"inflow_lps":17,"outflow_lps":8,"status":"ok","junction_degree":8}},{"type":"Feature","id":"TANK-05","geometry":{"type":"Point","coordinates":[34.75499518062803,-0.1259928610675805]},"properties":{"asset":"tank","id":"TANK-05","name":"Reservoir 5","capacity_m3":2080,"level_pct":88,"inflow_lps":20,"outflow_lps":13,"status":"ok","junction_degree":7}},{"type":"Feature","id":"TANK-06","geometry":{"type":"Point","coordinates":[34.76663389911257,-0.11711722366618904]},"properties":{"asset":"tank","id":"TANK-06","name":"Reservoir 6","capacity_m3":2400,"level_pct":60,"inflow_lps":9,"outflow_lps":18,"status":"ok","junction_degree":7}},{"type":"Feature","id":"PV-01","geometry":{"type":"Point","coordinates":[34.67261359709651,-0.0919767691713654]},"properties":{"asset":"pressure_valve","id":"PV-01","name":"PRV 1","set_bar":2.0,"live_bar":1.3,"min_bar":1.5,"max_bar":2.5,"status":"warn"}},{"type":"Feature","id":"PV-02","geometry":{"type":"Point","coordinates":[34.726541991445416,-0.06891453036052714]},"properties":{"asset":"pressure_valve","id":"PV-02","name":"PRV 2","set_bar":2.5,"live_bar":2.07,"min_bar":2.0,"max_bar":3.0,"status":"warn"}},{"type":"Feature","id":"PV-03","geometry":{"type":"Point","coordinates":[34.74158014396554,-0.1260524921534352]},"properties":{"asset":"pressure_valve","id":"PV-03","name":"PRV 3","set_bar":3.0,"live_bar":2.84,"min_bar":2.5,"max_bar":3.5,"status":"ok"}},{"type":"Feature","id":"PV-04","geometry":{"type":"Point","coordinates":[34.745643468317766,-0.12168567249305959]},"properties":{"asset":"pressure_valve","id":"PV-04","name":"PRV 4","set_bar":3.5,"live_bar":3.61,"min_bar":3.0,"max_bar":4.0,"status":"ok"}},{"type":"Feature","id":"PV-05","geometry":{"type":"Point","coordinates":[34.75208697058157,-0.03440995842414708]},"properties":{"asset":"pressure_valve","id":"PV-05","name":"PRV 5","set_bar":2.0,"live_bar":2.38,"min_bar":1.5,"max_bar":2.5,"status":"ok"}},{"type":"Feature","id":"PV-06","geometry":{"type":"Point","coordinates":[34.75606602405202,-0.0974656656724603]},"properties":{"asset":"pressure_valve","id":"PV-06","name":"PRV 6","set_bar":2.5,"live_bar":3.15,"min_bar":2.0,"max_bar":3.0,"status":"warn"}},{"type":"Feature","id":"PV-07","geometry":{"type":"Point","coordinates":[34.76321501522815,-0.09323633591287946]},"properties":{"asset":"pressure_valve","id":"PV-07","name":"PRV 7","set_bar":3.0,"live_bar":2.52,"min_bar":2.5,"max_bar":3.5,"status":"warn"}},{"type":"Feature","id":"PV-08","geometry":{"type":"Point","coordinates":[34.76649971165773,-0.0872808320729905]},"properties":{"asset":"pressure_valve","id":"PV-08","name":"PRV 8","set_bar":3.5,"live_bar":3.29,"min_bar":3.0,"max_bar":4.0,"status":"ok"}},{"type":"Feature","id":"PV-09","geometry":{"type":"Point","coordinates":[34.76880574357864,-0.10805850176896217]},"properties":{"asset":"pressure_valve","id":"PV-09","name":"PRV 9","set_bar":2.0,"live_bar":2.06,"min_bar":1.5,"max_bar":2.5,"status":"ok"}},{"type":"Feature","id":"PV-10","geometry":{"type":"Point","coordinates":[34.77549269163879,-0.10950056964731092]},"properties":{"asset":"pressure_valve","id":"PV-10","name":"PRV 10","set_bar":2.5,"live_bar":2.83,"min_bar":2.0,"max_bar":3.0,"status":"ok"}},{"type":"Feature","id":"PV-11","geometry":{"type":"Point","coordinates":[34.778530803240805,-0.07551864386350982]},"properties":{"asset":"pressure_valve","id":"PV-11","name":"PRV 11","set_bar":3.0,"live_bar":3.6,"min_bar":2.5,"max_bar":3.5,"status":"warn"}},{"type":"Feature","id":"PV-12","geometry":{"type":"Point","coordinates":[34.783834719726876,-0.06649331256787151]},"properties":{"asset":"pressure_valve","id":"PV-12","name":"PRV 12","set_bar":3.5,"live_bar":2.97,"min_bar":3.0,"max_bar":4.0,"status":"warn"}},{"type":"Feature","id":"PV-13","geometry":{"type":"Point","coordinates":[34.78790971737695,-0.08919999763723792]},"properties":{"asset":"pressure_valve","id":"PV-13","name":"PRV 13","set_bar":2.0,"live_bar":1.74,"min_bar":1.5,"max_bar":2.5,"status":"ok"}},{"type":"Feature","id":"PV-14","geometry":{"type":"Point","coordinates":[34.79145802434709,-0.13359338103778748]},"properties":{"asset":"pressure_valve","id":"PV-14","name":"PRV 14","set_bar":2.5,"live_bar":2.51,"min_bar":2.0,"max_bar":3.0,"status":"ok"}},{"type":"Feature","id":"PV-15","geometry":{"type":"Point","coordinates":[34.793801328496095,-0.12164863269666708]},"properties":{"asset":"pressure_valve","id":"PV-15","name":"PRV 15","set_bar":3.0,"live_bar":3.28,"min_bar":2.5,"max_bar":3.5,"status":"ok"}},{"type":"Feature","id":"PV-16","geometry":{"type":"Point","coordinates":[34.797029313354095,-0.11737560694379041]},"properties":{"asset":"pressure_valve","id":"PV-16","name":"PRV 16","set_bar":3.5,"live_bar":4.05,"min_bar":3.0,"max_bar":4.0,"status":"warn"}},{"type":"Feature","id":"PV-17","geometry":{"type":"Point","coordinates":[34.80222067653443,-0.029704363483361487]},"properties":{"asset":"pressure_valve","id":"PV-17","name":"PRV 17","set_bar":2.0,"live_bar":1.42,"min_bar":1.5,"max_bar":2.5,"status":"warn"}},{"type":"Feature","id":"PV-18","geometry":{"type":"Point","coordinates":[34.8072643176136,-0.0050893752947613405]},"properties":{"asset":"pressure_valve","id":"PV-18","name":"PRV 18","set_bar":2.5,"live_bar":2.19,"min_bar":2.0,"max_bar":3.0,"status":"ok"}},{"type":"Feature","id":"MV-01","geometry":{"type":"Point","coordinates":[34.74453003679044,-0.12944232170013287]},"properties":{"asset":"meter_valve","id":"MV-01","name":"Bulk meter MV-01","size_mm":50,"state":"throttled","consumption_m3d":120,"status":"warn"}},{"type":"Feature","id":"MV-02","geometry":{"type":"Point","coordinates":[34.747256838326294,-0.11936438219001641]},"properties":{"asset":"meter_valve","id":"MV-02","name":"Bulk meter MV-02","size_mm":75,"state":"open","consumption_m3d":161,"status":"ok"}},{"type":"Feature","id":"MV-03","geometry":{"type":"Point","coordinates":[34.752797410753175,-0.07028593503793464]},"properties":{"asset":"meter_valve","id":"MV-03","name":"Bulk meter MV-03","size_mm":100,"state":"open","consumption_m3d":202,"status":"ok"}},{"type":"Feature","id":"MV-04","geometry":{"type":"Point","coordinates":[34.756132530640265,-0.10897836492425685]},"properties":{"asset":"meter_valve","id":"MV-04","name":"Bulk meter MV-04","size_mm":150,"state":"open","consumption_m3d":243,"status":"ok"}},{"type":"Feature","id":"MV-05","geometry":{"type":"Point","coordinates":[34.76248723409457,-0.1103897090489816]},"properties":{"asset":"meter_valve","id":"MV-05","name":"Bulk meter MV-05","size_mm":200,"state":"open","consumption_m3d":284,"status":"ok"}},{"type":"Feature","id":"MV-06","geometry":{"type":"Point","coordinates":[34.766107163720235,-0.10436796230010262]},"properties":{"asset":"meter_valve","id":"MV-06","name":"Bulk meter MV-06","size_mm":50,"state":"open","consumption_m3d":325,"status":"ok"}},{"type":"Feature","id":"MV-07","geometry":{"type":"Point","coordinates":[34.76726551609825,-0.08760271507115326]},"properties":{"asset":"meter_valve","id":"MV-07","name":"Bulk meter MV-07","size_mm":75,"state":"throttled","consumption_m3d":366,"status":"ok"}},{"type":"Feature","id":"MV-08","geometry":{"type":"Point","coordinates":[34.769872797110644,-0.08920208208626067]},"properties":{"asset":"meter_valve","id":"MV-08","name":"Bulk meter MV-08","size_mm":100,"state":"open","consumption_m3d":407,"status":"ok"}},{"type":"Feature","id":"MV-09","geometry":{"type":"Point","coordinates":[34.77558401321081,-0.10961768487555999]},"properties":{"asset":"meter_valve","id":"MV-09","name":"Bulk meter MV-09","size_mm":150,"state":"open","consumption_m3d":448,"status":"ok"}},{"type":"Feature","id":"MV-10","geometry":{"type":"Point","coordinates":[34.7784012628192,-0.07765636623070966]},"properties":{"asset":"meter_valve","id":"MV-10","name":"Bulk meter MV-10","size_mm":200,"state":"open","consumption_m3d":489,"status":"warn"}},{"type":"Feature","id":"MV-11","geometry":{"type":"Point","coordinates":[34.78278594531556,-0.10169947234492259]},"properties":{"asset":"meter_valve","id":"MV-11","name":"Bulk meter MV-11","size_mm":50,"state":"open","consumption_m3d":530,"status":"ok"}},{"type":"Feature","id":"MV-12","geometry":{"type":"Point","coordinates":[34.786122028612446,-0.07414719190288857]},"properties":{"asset":"meter_valve","id":"MV-12","name":"Bulk meter MV-12","size_mm":75,"state":"open","consumption_m3d":571,"status":"ok"}},{"type":"Feature","id":"MV-13","geometry":{"type":"Point","coordinates":[34.78901146372196,-0.12445417662281211]},"properties":{"asset":"meter_valve","id":"MV-13","name":"Bulk meter MV-13","size_mm":100,"state":"throttled","consumption_m3d":612,"status":"ok"}},{"type":"Feature","id":"MV-14","geometry":{"type":"Point","coordinates":[34.79213295388372,-0.09991456930352811]},"properties":{"asset":"meter_valve","id":"MV-14","name":"Bulk meter MV-14","size_mm":150,"state":"open","consumption_m3d":653,"status":"ok"}},{"type":"Feature","id":"MV-15","geometry":{"type":"Point","coordinates":[34.793801328496095,-0.12164863269666708]},"properties":{"asset":"meter_valve","id":"MV-15","name":"Bulk meter MV-15","size_mm":200,"state":"open","consumption_m3d":694,"status":"ok"}},{"type":"Feature","id":"MV-16","geometry":{"type":"Point","coordinates":[34.79655303461619,-0.11787731819169896]},"properties":{"asset":"meter_valve","id":"MV-16","name":"Bulk meter MV-16","size_mm":50,"state":"open","consumption_m3d":735,"status":"ok"}},{"type":"Feature","id":"MV-17","geometry":{"type":"Point","coordinates":[34.80028047490125,-0.11419189832056724]},"properties":{"asset":"meter_valve","id":"MV-17","name":"Bulk meter MV-17","size_mm":75,"state":"open","consumption_m3d":776,"status":"ok"}},{"type":"Feature","id":"MV-18","geometry":{"type":"Point","coordinates":[34.804220631718636,-0.021711754282711354]},"properties":{"asset":"meter_valve","id":"MV-18","name":"Bulk meter MV-18","size_mm":100,"state":"open","consumption_m3d":817,"status":"ok"}},{"type":"Feature","id":"MV-19","geometry":{"type":"Point","coordinates":[34.808946009021504,-0.11736331065440958]},"properties":{"asset":"meter_valve","id":"MV-19","name":"Bulk meter MV-19","size_mm":150,"state":"throttled","consumption_m3d":858,"status":"warn"}},{"type":"Feature","id":"MV-20","geometry":{"type":"Point","coordinates":[34.835081773026275,-0.09998352611330805]},"properties":{"asset":"meter_valve","id":"MV-20","name":"Bulk meter MV-20","size_mm":200,"state":"open","consumption_m3d":899,"status":"ok"}},{"type":"Feature","id":"SN-01","geometry":{"type":"Point","coordinates":[34.68568017060563,-0.06978112175741767]},"properties":{"asset":"sensor","id":"SN-01","name":"Flow + pressure sensor 1","type":"flow+pressure","flow_lps":4.0,"pressure_bar":2.4,"last_seen":"1s ago","status":"alert","pipe_id":"P-00000"}},{"type":"Feature","id":"SN-02","geometry":{"type":"Point","coordinates":[34.78094129974686,-0.07201614075058044]},"properties":{"asset":"sensor","id":"SN-02","name":"Flow + pressure sensor 2","type":"flow+pressure","flow_lps":5.7,"pressure_bar":2.61,"last_seen":"3s ago","status":"ok","pipe_id":"P-00096"}},{"type":"Feature","id":"SN-03","geometry":{"type":"Point","coordinates":[34.77589428265296,-0.09600799485903945]},"properties":{"asset":"sensor","id":"SN-03","name":"Flow + pressure sensor 3","type":"flow+pressure","flow_lps":7.4,"pressure_bar":2.82,"last_seen":"5s ago","status":"ok","pipe_id":"P-00205"}},{"type":"Feature","id":"SN-04","geometry":{"type":"Point","coordinates":[34.78305915038606,-0.09610144174455436]},"properties":{"asset":"sensor","id":"SN-04","name":"Flow + pressure sensor 4","type":"flow+pressure","flow_lps":9.1,"pressure_bar":3.03,"last_seen":"7s ago","status":"ok","pipe_id":"P-00346"}},{"type":"Feature","id":"SN-05","geometry":{"type":"Point","coordinates":[34.757769073745045,-0.11066842690530362]},"properties":{"asset":"sensor","id":"SN-05","name":"Flow + pressure sensor 5","type":"flow+pressure","flow_lps":10.8,"pressure_bar":3.24,"last_seen":"9s ago","status":"ok","pipe_id":"P-00443"}},{"type":"Feature","id":"SN-06","geometry":{"type":"Point","coordinates":[34.78143562562033,-0.0909169668969358]},"properties":{"asset":"sensor","id":"SN-06","name":"Flow + pressure sensor 6","type":"flow+pressure","flow_lps":12.5,"pressure_bar":3.45,"last_seen":"11s ago","status":"ok","pipe_id":"P-00541"}},{"type":"Feature","id":"SN-07","geometry":{"type":"Point","coordinates":[34.778866217612496,-0.08133165588501684]},"properties":{"asset":"sensor","id":"SN-07","name":"Flow + pressure sensor 7","type":"flow+pressure","flow_lps":14.2,"pressure_bar":3.66,"last_seen":"13s ago","status":"ok","pipe_id":"P-00639"}},{"type":"Feature","id":"SN-08","geometry":{"type":"Point","coordinates":[34.76641198613527,-0.08775062723132056]},"properties":{"asset":"sensor","id":"SN-08","name":"Flow + pressure sensor 8","type":"flow+pressure","flow_lps":15.9,"pressure_bar":3.87,"last_seen":"15s ago","status":"ok","pipe_id":"P-00757"}},{"type":"Feature","id":"SN-09","geometry":{"type":"Point","coordinates":[34.73318608577668,-0.07051926466206848]},"properties":{"asset":"sensor","id":"SN-09","name":"Flow + pressure sensor 9","type":"flow+pressure","flow_lps":17.6,"pressure_bar":2.48,"last_seen":"17s ago","status":"ok","pipe_id":"P-00874"}},{"type":"Feature","id":"SN-10","geometry":{"type":"Point","coordinates":[34.75315273338008,-0.10565900375130767]},"properties":{"asset":"sensor","id":"SN-10","name":"Flow + pressure sensor 10","type":"flow+pressure","flow_lps":19.3,"pressure_bar":2.69,"last_seen":"19s ago","status":"ok","pipe_id":"P-00969"}},{"type":"Feature","id":"SN-11","geometry":{"type":"Point","coordinates":[34.72089194342644,-0.07583837398078036]},"properties":{"asset":"sensor","id":"SN-11","name":"Flow + pressure sensor 11","type":"flow+pressure","flow_lps":21.0,"pressure_bar":2.9,"last_seen":"21s ago","status":"ok","pipe_id":"P-01074"}},{"type":"Feature","id":"SN-12","geometry":{"type":"Point","coordinates":[34.79980904571837,-0.09054324079451388]},"properties":{"asset":"sensor","id":"SN-12","name":"Flow + pressure sensor 12","type":"flow+pressure","flow_lps":4.7,"pressure_bar":3.11,"last_seen":"23s ago","status":"alert","pipe_id":"P-01170"}},{"type":"Feature","id":"SN-13","geometry":{"type":"Point","coordinates":[34.77812789866544,-0.06111098365990974]},"properties":{"asset":"sensor","id":"SN-13","name":"Flow + pressure sensor 13","type":"flow+pressure","flow_lps":6.4,"pressure_bar":3.32,"last_seen":"25s ago","status":"ok","pipe_id":"P-01260"}},{"type":"Feature","id":"SN-14","geometry":{"type":"Point","coordinates":[34.73603568622162,-0.07471825621772515]},"properties":{"asset":"sensor","id":"SN-14","name":"Flow + pressure sensor 14","type":"flow+pressure","flow_lps":8.1,"pressure_bar":3.53,"last_seen":"27s ago","status":"ok","pipe_id":"P-01364"}},{"type":"Feature","id":"SN-15","geometry":{"type":"Point","coordinates":[34.80648919054461,-0.013702031370533345]},"properties":{"asset":"sensor","id":"SN-15","name":"Flow + pressure sensor 15","type":"flow+pressure","flow_lps":9.8,"pressure_bar":3.74,"last_seen":"29s ago","status":"ok","pipe_id":"P-01461"}},{"type":"Feature","id":"SN-16","geometry":{"type":"Point","coordinates":[34.76149872113214,-0.05552890626446105]},"properties":{"asset":"sensor","id":"SN-16","name":"Flow + pressure sensor 16","type":"flow+pressure","flow_lps":11.5,"pressure_bar":3.95,"last_seen":"31s ago","status":"ok","pipe_id":"P-01557"}},{"type":"Feature","id":"SN-17","geometry":{"type":"Point","coordinates":[34.742576510945966,-0.028795731112375482]},"properties":{"asset":"sensor","id":"SN-17","name":"Flow + pressure sensor 17","type":"flow+pressure","flow_lps":13.2,"pressure_bar":2.56,"last_seen":"33s ago","status":"ok","pipe_id":"P-01654"}},{"type":"Feature","id":"SN-18","geometry":{"type":"Point","coordinates":[34.75696388311924,-0.04289334239861961]},"properties":{"asset":"sensor","id":"SN-18","name":"Flow + pressure sensor 18","type":"flow+pressure","flow_lps":14.9,"pressure_bar":2.77,"last_seen":"35s ago","status":"ok","pipe_id":"P-01751"}},{"type":"Feature","id":"SN-19","geometry":{"type":"Point","coordinates":[34.74993477915995,-0.1210251789213981]},"properties":{"asset":"sensor","id":"SN-19","name":"Flow + pressure sensor 19","type":"flow+pressure","flow_lps":16.6,"pressure_bar":2.98,"last_seen":"37s ago","status":"ok","pipe_id":"P-01847"}},{"type":"Feature","id":"SN-20","geometry":{"type":"Point","coordinates":[34.739312577795374,-0.07233371173953201]},"properties":{"asset":"sensor","id":"SN-20","name":"Flow + pressure sensor 20","type":"flow+pressure","flow_lps":18.3,"pressure_bar":3.19,"last_seen":"39s ago","status":"ok","pipe_id":"P-01944"}},{"type":"Feature","id":"SN-21","geometry":{"type":"Point","coordinates":[34.738217329971874,-0.08674038931169041]},"properties":{"asset":"sensor","id":"SN-21","name":"Flow + pressure sensor 21","type":"flow+pressure","flow_lps":20.0,"pressure_bar":3.4,"last_seen":"41s ago","status":"ok","pipe_id":"P-02041"}},{"type":"Feature","id":"SN-22","geometry":{"type":"Point","coordinates":[34.74847784264826,-0.10720236641142915]},"properties":{"asset":"sensor","id":"SN-22","name":"Flow + pressure sensor 22","type":"flow+pressure","flow_lps":21.7,"pressure_bar":3.61,"last_seen":"43s ago","status":"ok","pipe_id":"P-02138"}},{"type":"Feature","id":"SN-23","geometry":{"type":"Point","coordinates":[34.79236678950545,-0.07946665572989713]},"properties":{"asset":"sensor","id":"SN-23","name":"Flow + pressure sensor 23","type":"flow+pressure","flow_lps":5.4,"pressure_bar":3.82,"last_seen":"45s ago","status":"alert","pipe_id":"P-02311"}},{"type":"Feature","id":"SN-24","geometry":{"type":"Point","coordinates":[34.83496279001859,-0.09162640222546993]},"properties":{"asset":"sensor","id":"SN-24","name":"Flow + pressure sensor 24","type":"flow+pressure","flow_lps":7.1,"pressure_bar":2.43,"last_seen":"47s ago","status":"ok","pipe_id":"P-02418"}},{"type":"Feature","id":"SN-25","geometry":{"type":"Point","coordinates":[34.78894223388201,-0.12112739705062642]},"properties":{"asset":"sensor","id":"SN-25","name":"Flow + pressure sensor 25","type":"flow+pressure","flow_lps":8.8,"pressure_bar":2.64,"last_seen":"49s ago","status":"ok","pipe_id":"P-02514"}},{"type":"Feature","id":"SN-26","geometry":{"type":"Point","coordinates":[34.767650510676134,-0.1126597994224051]},"properties":{"asset":"sensor","id":"SN-26","name":"Flow + pressure sensor 26","type":"flow+pressure","flow_lps":10.5,"pressure_bar":2.85,"last_seen":"51s ago","status":"ok","pipe_id":"P-03094"}}]}